COMMENT,ORIGINATOR,NORAD_CAT_ID,OBJECT_NAME,OBJECT_TYPE,CLASSIFICATION_TYPE,INTLDES,EPOCH,EPOCH_MICROSECONDS,MEAN_MOTION,ECCENTRICITY,INCLINATION,RA_OF_ASC_NODE,ARG_OF_PERICENTER,MEAN_ANOMALY,EPHEMERIS_TYPE,ELEMENT_SET_NO,REV_AT_EPOCH,BSTAR,MEAN_MOTION_DOT,MEAN_MOTION_DDOT,FILE,TLE_LINE0,TLE_LINE1,TLE_LINE2,OBJECT_ID,OBJECT_NUMBER,SEMIMAJOR_AXIS,PERIOD,APOGEE,PERIGEE,DECAYED,date
GENERATED VIA SPACETRACK.ORG API,18 SPCS,46300,SPACEBEE-21,PAYLOAD,U,20061AE,2023/2/11 4:42,539360,15.34563953,0.0000679,97.421,117.5725,291.3078,68.8093,0,999,13490,0.0033898,0.00115029,0,3786144,0 SPACEBEE-21,1 46300U 20061AE  23042.19616365  .00115029  00000-0  33898-2 0  9991,2 46300  97.4210 117.5725 0000679 291.3078  68.8093 15.34563953134903,2020-061AE,46300,6840.353,93.838,462.682,461.754,1,2023/4/3
GENERATED VIA SPACETRACK.ORG API,18 SPCS,46300,SPACEBEE-21,PAYLOAD,U,20061AE,2023/2/12 4:10,835936,15.34793731,0.0000807,97.4207,118.5564,287.1097,73.0058,0,999,13505,0.0032607,0.00111399,0,3787692,0 SPACEBEE-21,1 46300U 20061AE  23043.17419949  .00111399  00000-0  32607-2 0  9992,2 46300  97.4207 118.5564 0000807 287.1097  73.0058 15.34793731135053,2020-061AE,46300,6839.67,93.824,462.087,460.983,1,2023/4/4
GENERATED VIA SPACETRACK.ORG API,18 SPCS,46300,SPACEBEE-21,PAYLOAD,U,20061AE,2023/2/13 3:39,831744,15.35015255,0.0000852,97.4209,119.5404,289.6313,70.4838,0,999,13520,0.0033462,0.00115186,0,3788715,0 SPACEBEE-21,1 46300U 20061AE  23044.15209296  .00115186  00000-0  33462-2 0  9991,2 46300  97.4209 119.5404 0000852 289.6313  70.4838 15.35015255135200,2020-061AE,46300,6839.012,93.81,461.46,460.294,1,2023/4/5
GENERATED VIA SPACETRACK.ORG API,18 SPCS,46300,SPACEBEE-21,PAYLOAD,U,20061AE,2023/2/13 11:28,476640,15.35082936,0.0000833,97.421,119.8689,293.056,67.0595,0,999,13525,0.0033378,0.00115143,0,3789366,0 SPACEBEE-21,1 46300U 20061AE  23044.47802635  .00115143  00000-0  33378-2 0  9991,2 46300  97.4210 119.8689 0000833 293.0560  67.0595 15.35082936135259,2020-061AE,46300,6838.811,93.806,461.246,460.106,1,2023/4/6
GENERATED VIA SPACETRACK.ORG API,18 SPCS,46300,SPACEBEE-21,PAYLOAD,U,20061AE,2023/2/13 22:25,346848,15.35179301,0.0000857,97.4209,120.3281,291.9003,68.2149,0,999,13532,0.0032963,0.00114042,0,3790539,0 SPACEBEE-21,1 46300U 20061AE  23044.93430957  .00114042  00000-0  32963-2 0  9992,2 46300  97.4209 120.3281 0000857 291.9003  68.2149 15.35179301135326,2020-061AE,46300,6838.525,93.8,460.976,459.804,1,2023/4/7
GENERATED VIA SPACETRACK.ORG API,18 SPCS,46300,SPACEBEE-21,PAYLOAD,U,20061AE,2023/2/14 10:56,981792,15.3528866,0.0000863,97.4209,120.8535,290.2589,69.8561,0,999,13540,0.0033163,0.0011515,0,3791349,0 SPACEBEE-21,1 46300U 20061AE  23045.45574053  .00115150  00000-0  33163-2 0  9990,2 46300  97.4209 120.8535 0000863 290.2589  69.8561 15.35288660135404,2020-061AE,46300,6838.2,93.793,460.655,459.475,1,2023/4/8
GENERATED VIA SPACETRACK.ORG API,18 SPCS,46300,SPACEBEE-21,PAYLOAD,U,20061AE,2023/2/14 15:37,550016,15.35328888,0.0000937,97.421,121.0505,291.9028,68.2116,0,999,13543,0.0032165,0.00111776,0,3791966,0 SPACEBEE-21,1 46300U 20061AE  23045.65126794  .00111776  00000-0  32165-2 0  9998,2 46300  97.4210 121.0505 0000937 291.9028  68.2116 15.35328888135433,2020-061AE,46300,6838.081,93.791,460.587,459.305,1,2023/4/9
GENERATED VIA SPACETRACK.ORG API,18 SPCS,46300,SPACEBEE-21,PAYLOAD,U,20061AE,2023/2/14 15:37,550016,15.35328888,0.0000937,97.421,121.0505,291.9028,68.2116,0,999,13543,0.0032165,0.00111776,0,3792084,0 SPACEBEE-21,1 46300U 20061AE  23045.65126794  .00111776  00000-0  32165-2 0  9998,2 46300  97.4210 121.0505 0000937 291.9028  68.2116 15.35328888135433,2020-061AE,46300,6838.081,93.791,460.587,459.305,1,2023/4/10
GENERATED VIA SPACETRACK.ORG API,18 SPCS,46300,SPACEBEE-21,PAYLOAD,U,20061AE,2023/2/15 10:23,183232,15.35495587,0.0001009,97.4207,121.838,288.4521,71.6613,0,999,13555,0.0033433,0.00116882,0,3793706,0 SPACEBEE-21,1 46300U 20061AE  23046.43332388  .00116882  00000-0  33433-2 0  9995,2 46300  97.4207 121.8380 0001009 288.4521  71.6613 15.35495587135552,2020-061AE,46300,6837.586,93.781,460.141,458.761,1,2023/4/11
GENERATED VIA SPACETRACK.ORG API,18 SPCS,46300,SPACEBEE-21,PAYLOAD,U,20061AE,2023/2/15 15:05,352992,15.3555585,0.0001037,97.4207,122.035,289.3177,70.7954,0,999,13558,0.0042179,0.00148379,0,3794775,0 SPACEBEE-21,1 46300U 20061AE  23046.62882353  .00148379  00000-0  42179-2 0  9991,2 46300  97.4207 122.0350 0001037 289.3177  70.7954 15.35555850135581,2020-061AE,46300,6837.407,93.777,459.981,458.563,1,2023/4/12
GENERATED VIA SPACETRACK.ORG API,18 SPCS,46300,SPACEBEE-21,PAYLOAD,U,20061AE,2023/2/15 15:05,352992,15.3555585,0.0001037,97.4207,122.035,289.3177,70.7954,0,999,13558,0.0042179,0.00148379,0,3795153,0 SPACEBEE-21,1 46300U 20061AE  23046.62882353  .00148379  00000-0  42179-2 0  9991,2 46300  97.4207 122.0350 0001037 289.3177  70.7954 15.35555850135581,2020-061AE,46300,6837.407,93.777,459.981,458.563,1,2023/4/13
GENERATED VIA SPACETRACK.ORG API,18 SPCS,46300,SPACEBEE-21,PAYLOAD,U,20061AE,2023/2/16 11:25,168672,15.35786637,0.0000979,97.4211,122.8887,287.3041,72.8096,0,999,13571,0.0036964,0.00130676,0,3798081,0 SPACEBEE-21,1 46300U 20061AE  23047.47590473  .00130676  00000-0  36964-2 0  9990,2 46300  97.4211 122.8887 0000979 287.3041  72.8096 15.35786637135715,2020-061AE,46300,6836.722,93.763,459.256,457.918,1,2023/4/14
GENERATED VIA SPACETRACK.ORG API,18 SPCS,46300,SPACEBEE-21,PAYLOAD,U,20061AE,2023/2/16 11:25,168672,15.35786637,0.0000979,97.4211,122.8887,287.3041,72.8096,0,999,13571,0.0036964,0.00130676,0,3798293,0 SPACEBEE-21,1 46300U 20061AE  23047.47590473  .00130676  00000-0  36964-2 0  9990,2 46300  97.4211 122.8887 0000979 287.3041  72.8096 15.35786637135715,2020-061AE,46300,6836.722,93.763,459.256,457.918,1,2023/4/15
GENERATED VIA SPACETRACK.ORG API,18 SPCS,46300,SPACEBEE-21,PAYLOAD,U,20061AE,2023/2/17 10:52,682720,15.36014613,0.0001067,97.4208,123.8736,282.7977,77.3148,0,999,13586,0.0026952,0.0009551,0,3802214,0 SPACEBEE-21,1 46300U 20061AE  23048.45315605  .00095510  00000-0  26952-2 0  9994,2 46300  97.4208 123.8736 0001067 282.7977  77.3148 15.36014613135864,2020-061AE,46300,6836.045,93.749,458.64,457.181,1,2023/4/16
GENERATED VIA SPACETRACK.ORG API,18 SPCS,46300,SPACEBEE-21,PAYLOAD,U,20061AE,2023/2/17 10:52,682720,15.36014613,0.0001067,97.4208,123.8736,282.7977,77.3148,0,999,13586,0.0026952,0.0009551,0,3802730,0 SPACEBEE-21,1 46300U 20061AE  23048.45315605  .00095510  00000-0  26952-2 0  9994,2 46300  97.4208 123.8736 0001067 282.7977  77.3148 15.36014613135864,2020-061AE,46300,6836.045,93.749,458.64,457.181,1,2023/4/17
GENERATED VIA SPACETRACK.ORG API,18 SPCS,46300,SPACEBEE-21,PAYLOAD,U,20061AE,2023/2/18 4:04,741120,15.36132955,0.0001091,97.4208,124.5955,278.7278,81.3842,0,999,13597,0.0021428,0.0007601,0,3806479,0 SPACEBEE-21,1 46300U 20061AE  23049.16973080  .00076010  00000-0  21428-2 0  9997,2 46300  97.4208 124.5955 0001091 278.7278  81.3842 15.36132955135979,2020-061AE,46300,6835.694,93.742,458.305,456.814,1,2023/4/18
GENERATED VIA SPACETRACK.ORG API,18 SPCS,46300,SPACEBEE-21,PAYLOAD,U,20061AE,2023/2/18 4:04,741120,15.36132955,0.0001091,97.4208,124.5955,278.7278,81.3842,0,999,13597,0.0021428,0.0007601,0,3807124,0 SPACEBEE-21,1 46300U 20061AE  23049.16973080  .00076010  00000-0  21428-2 0  9997,2 46300  97.4208 124.5955 0001091 278.7278  81.3842 15.36132955135979,2020-061AE,46300,6835.694,93.742,458.305,456.814,1,2023/4/19
GENERATED VIA SPACETRACK.ORG API,18 SPCS,46300,SPACEBEE-21,PAYLOAD,U,20061AE,2023/2/19 11:20,229504,15.36344078,0.0001124,97.4198,125.9089,275.4075,84.7041,0,999,13617,0.0023886,0.00085419,0,3811178,0 SPACEBEE-21,1 46300U 20061AE  23050.47245636  .00085419  00000-0  23886-2 0  9995,2 46300  97.4198 125.9089 0001124 275.4075  84.7041 15.36344078136178,2020-061AE,46300,6835.068,93.729,457.701,456.165,1,2023/4/20
GENERATED VIA SPACETRACK.ORG API,18 SPCS,46300,SPACEBEE-21,PAYLOAD,U,20061AE,2023/2/19 11:20,229504,15.36344078,0.0001124,97.4198,125.9089,275.4075,84.7041,0,999,13617,0.0023886,0.00085419,0,3811610,0 SPACEBEE-21,1 46300U 20061AE  23050.47245636  .00085419  00000-0  23886-2 0  9995,2 46300  97.4198 125.9089 0001124 275.4075  84.7041 15.36344078136178,2020-061AE,46300,6835.068,93.729,457.701,456.165,1,2023/4/21
GENERATED VIA SPACETRACK.ORG API,18 SPCS,46300,SPACEBEE-21,PAYLOAD,U,20061AE,2023/2/19 17:35,587776,15.36376921,0.0001246,97.42,126.1717,275.4747,84.6354,0,999,13621,0.0020228,0.00072276,0,3813053,0 SPACEBEE-21,1 46300U 20061AE  23050.73298134  .00072276  00000-0  20228-2 0  9999,2 46300  97.4200 126.1717 0001246 275.4747  84.6354 15.36376921136217,2020-061AE,46300,6834.971,93.727,457.687,455.984,1,2023/4/22
GENERATED VIA SPACETRACK.ORG API,18 SPCS,46300,SPACEBEE-21,PAYLOAD,U,20061AE,2023/2/20 10:47,8288,15.36491764,0.0001351,97.4193,126.8941,271.2763,88.8327,0,999,13632,0.0021458,0.00077007,0,3815526,0 SPACEBEE-21,1 46300U 20061AE  23051.44938667  .00077007  00000-0  21458-2 0  9993,2 46300  97.4193 126.8941 0001351 271.2763  88.8327 15.36491764136324,2020-061AE,46300,6834.63,93.72,457.418,455.572,1,2023/4/23
GENERATED VIA SPACETRACK.ORG API,18 SPCS,46300,SPACEBEE-21,PAYLOAD,U,20061AE,2023/2/20 10:47,8288,15.36491764,0.0001351,97.4193,126.8941,271.2763,88.8327,0,999,13632,0.0021458,0.00077007,0,3815761,0 SPACEBEE-21,1 46300U 20061AE  23051.44938667  .00077007  00000-0  21458-2 0  9993,2 46300  97.4193 126.8941 0001351 271.2763  88.8327 15.36491764136324,2020-061AE,46300,6834.63,93.72,457.418,455.572,1,2023/4/24
GENERATED VIA SPACETRACK.ORG API,18 SPCS,46300,SPACEBEE-21,PAYLOAD,U,20061AE,2023/2/21 3:58,887616,15.36611019,0.0001452,97.419,127.6161,267.6286,92.4792,0,999,13643,0.0022134,0.00079769,0,3819413,0 SPACEBEE-21,1 46300U 20061AE  23052.16573944  .00079769  00000-0  22134-2 0  9995,2 46300  97.4190 127.6161 0001452 267.6286  92.4792 15.36611019136431,2020-061AE,46300,6834.277,93.713,457.134,455.149,1,2023/4/25
